ONEWEB-0641             
1 55805U 23029K   24098.40184172  .00000042  00000+0  72531-4 0  9996
2 55805  87.9098 104.3467 0001690  94.1207 266.0119 13.19723984 53291
ONEWEB-0642             
1 55806U 23029L   24098.47292084  .00000006  00000+0 -18204-4 0  9994
2 55806  87.9101 104.3522 0001129 121.0040 239.1204 13.19723360 53295
ONEWEB-0643             
1 55807U 23029M   24098.38501056 -.00000190  00000+0 -54714-3 0  9997
2 55807  87.8901  89.0850 0001726 120.3531 239.7770 13.14503563 54185
ONEWEB-0644             
1 55808U 23029N   24098.46819654  .00000030  00000+0  41378-4 0  9997
2 55808  87.9101 104.3479 0001451 106.0429 254.0864 13.19724351 53299
ONEWEB-0645             
1 55809U 23029P   24098.38840187  .00000011  00000+0 -38208-5 0  9993
2 55809  87.9102 104.3659 0001353  84.8733 275.2554 13.19722895 53284
ONEWEB-0646             
1 55810U 23029Q   24098.41843319  .00000102  00000+0  22284-3 0  9994
2 55810  87.9101 104.3607 0001817  98.8190 261.3148 13.19724597 53270
ONEWEB-0649             
1 55812U 23029S   24098.45712383 -.00000015  00000+0 -69702-4 0  9998
2 55812  87.9098 104.3500 0001400  95.2101 264.9191 13.19726983 53313
